NORAD_CAT_ID,OBJECT_NAME,OBJECT_TYPE,EPOCH,MEAN_MOTION,ECCENTRICITY,INCLINATION,RA_OF_ASC_NODE,ARG_OF_PERICENTER,MEAN_ANOMALY,BSTAR,MEAN_MOTION_DOT,MEAN_MOTION_DDOT,TLE_LINE0,TLE_LINE1,TLE_LINE2,SEMIMAJOR_AXIS,PERIOD,APOGEE,PERIGEE,DECAYED
53836.0,STARLINK-4778,PAYLOAD,2022-10-15 22:00:01,15.73205189,0.0001009,53.2175,125.797,123.5097,208.0008,-1.2745e-05,-2.408e-05,0.0,0 STARLINK-4778,1 53836U 22114U   22288.91668981 -.00002408  00000-0 -12745-4 0  9994,2 53836  53.2175 125.7970 0001009 123.5097 208.0008 15.73205189  4809,6727.88,91.533,350.4240000000001,349.06699999999995,0.0
53836.0,STARLINK-4778,PAYLOAD,2022-10-16 14:00:01,15.73142725,9.44e-05,53.2155,122.4926,98.2155,51.1082,0.00055449,0.0007773,0.0,0 STARLINK-4778,1 53836U 22114U   22289.58334491  .00077730  00000-0  55449-3 0  9999,2 53836  53.2155 122.4926 0000944  98.2155  51.1082 15.73142725  1309,6728.058000000001,91.537,350.559,349.288,0.0
53836.0,STARLINK-4778,PAYLOAD,2022-10-16 22:00:00,15.73182321,9.54e-05,53.2157,120.8453,76.9228,161.2892,0.00046109,0.0006454,0.0,0 STARLINK-4778,1 53836U 22114U   22289.91667824  .00064540  00000-0  46109-3 0  9993,2 53836  53.2157 120.8453 0000954  76.9228 161.2892 15.73182321  1301,6727.946,91.534,350.452,349.1690000000001,0.0
53836.0,STARLINK-4778,PAYLOAD,2022-10-17 06:00:00,15.73228795,9.21e-05,53.2161,119.1946,84.0929,243.0569,-0.00042225,-0.00059532,0.0,0 STARLINK-4778,1 53836U 22114U   22290.25001157 -.00059532  00000-0 -42225-3 0  9995,2 53836  53.2161 119.1946 0000921  84.0929 243.0569 15.73228795  5014,6727.813,91.532,350.298,349.05800000000005,0.0
53836.0,STARLINK-4778,PAYLOAD,2022-10-17 14:00:01,15.73200854,8.82e-05,53.2158,117.5446,90.7461,325.3883,0.00040892,0.00057162,0.0,0 STARLINK-4778,1 53836U 22114U   22290.58334491  .00057162  00000-0  40892-3 0  9994,2 53836  53.2158 117.5446 0000882  90.7461 325.3883 15.73200854  5062,6727.893,91.533,350.351,349.164,0.0
53836.0,STARLINK-4778,PAYLOAD,2022-10-17 22:00:00,15.73214221,0.0001036,53.2152,115.8969,69.098,75.9628,-0.00011857,-0.00017236,0.0,0 STARLINK-4778,1 53836U 22114U   22290.91667824 -.00017236  00000-0 -11857-3 0  9999,2 53836  53.2152 115.8969 0001036  69.0980  75.9628 15.73214221  1305,6727.855,91.532,350.417,349.023,0.0
53836.0,STARLINK-4778,PAYLOAD,2022-10-18 14:00:01,15.73154072,0.0001047,53.2153,112.5961,82.6743,240.222,0.00015762,0.00021514,0.0,0 STARLINK-4778,1 53836U 22114U   22291.58334491  .00021514  00000-0  15762-3 0  9995,2 53836  53.2153 112.5961 0001047  82.6743 240.2220 15.73154072  5229,6728.026,91.536,350.596,349.18699999999984,0.0
53836.0,STARLINK-4778,PAYLOAD,2022-10-18 22:00:00,15.73202499,0.0001085,53.2176,110.951,81.4988,330.3556,2.3798e-05,2.722e-05,0.0,0 STARLINK-4778,1 53836U 22114U   22291.91667824  .00002722  00000-0  23798-4 0  9990,2 53836  53.2176 110.9510 0001085  81.4988 330.3556 15.73202499  5271,6727.888000000001,91.533,350.483,349.023,0.0
53836.0,STARLINK-4778,PAYLOAD,2022-10-19 08:00:01,15.73200885,0.0001074,53.2152,108.8846,71.6053,181.3413,0.00013253,0.0001802,0.0,0 STARLINK-4778,1 53836U 22114U   22292.33334491  .00018020  00000-0  13253-3 0  9990,2 53836  53.2152 108.8846 0001074  71.6053 181.3413 15.73200885  5346,6727.893,91.533,350.48,349.035,0.0
53836.0,STARLINK-4778,PAYLOAD,2022-10-19 14:00:01,15.73216053,0.0001169,53.2152,107.648,72.9047,156.7425,0.00030946,0.00043063,0.0,0 STARLINK-4778,1 53836U 22114U   22292.58334491  .00043063  00000-0  30946-3 0  9990,2 53836  53.2152 107.6480 0001169  72.9047 156.7425 15.73216053  1304,6727.849,91.532,350.501,348.92800000000005,0.0
53836.0,STARLINK-4778,PAYLOAD,2022-10-19 22:00:00,15.73256272,0.000111,53.2162,106.0018,70.1774,248.4403,-0.0004369,-0.00061634,0.0,0 STARLINK-4778,1 53836U 22114U   22292.91667824 -.00061634  00000-0 -43690-3 0  9992,2 53836  53.2162 106.0018 0001110  70.1774 248.4403 15.73256272  1300,6727.735,91.53,350.347,348.853,0.0
53836.0,STARLINK-4778,PAYLOAD,2022-10-20 14:00:01,15.73213425,0.0001283,53.2152,102.6993,70.1135,66.4207,-0.00021704,-0.00030985,0.0,0 STARLINK-4778,1 53836U 22114U   22293.58334491 -.00030985  00000-0 -21704-3 0  9994,2 53836  53.2152 102.6993 0001283  70.1135  66.4207 15.73213425  5548,6727.857,91.532,350.585,348.8590000000001,0.0
53836.0,STARLINK-4778,PAYLOAD,2022-10-20 22:00:00,15.73137328,0.0001383,53.2152,101.0517,54.2408,171.1972,0.00017409,0.00023816,0.0,0 STARLINK-4778,1 53836U 22114U   22293.91667824  .00023816  00000-0  17409-3 0  9990,2 53836  53.2152 101.0517 0001383  54.2408 171.1972 15.73137328  1300,6728.074000000001,91.537,350.869,349.0080000000001,0.0
53836.0,STARLINK-4778,PAYLOAD,2022-10-21 06:00:00,15.73149425,0.0001143,53.2155,99.4001,58.5151,255.826,0.00051938,0.00072746,0.0,0 STARLINK-4778,1 53836U 22114U   22294.25001157  .00072746  00000-0  51938-3 0  9990,2 53836  53.2155  99.4001 0001143  58.5151 255.8260 15.73149425  5649,6728.0390000000025,91.536,350.673,349.135,0.0
53836.0,STARLINK-4778,PAYLOAD,2022-10-21 14:00:01,15.73263269,0.0001254,53.2151,97.7508,57.0818,346.2187,0.00013311,0.00018152,0.0,0 STARLINK-4778,1 53836U 22114U   22294.58334491  .00018152  00000-0  13311-3 0  9990,2 53836  53.2151  97.7508 0001254  57.0818 346.2187 15.73263269  5696,6727.715,91.529,350.423,348.736,0.0
53836.0,STARLINK-4778,PAYLOAD,2022-10-21 22:00:00,15.73253434,0.0001449,53.2139,96.1023,47.9473,84.3386,-0.00038089,-0.00053857,0.0,0 STARLINK-4778,1 53836U 22114U   22294.91667824 -.00053857  00000-0 -38089-3 0  9998,2 53836  53.2139  96.1023 0001449  47.9473  84.3386 15.73253434  5759,6727.743,91.53,350.583,348.6330000000001,0.0
53836.0,STARLINK-4778,PAYLOAD,2022-10-22 08:00:01,15.73115878,0.0001122,53.2138,94.0377,61.2544,272.1805,0.00082873,0.00116895,0.0,0 STARLINK-4778,1 53836U 22114U   22295.33334491  .00116895  00000-0  82873-3 0  9996,2 53836  53.2138  94.0377 0001122  61.2544 272.1805 15.73115878  5812,6728.135,91.538,350.755,349.245,0.0
53836.0,STARLINK-4778,PAYLOAD,2022-10-22 14:00:01,15.73188394,0.0001215,53.2142,92.8016,57.7508,252.315,0.00021419,0.00029531,0.0,0 STARLINK-4778,1 53836U 22114U   22295.58334491  .00029531  00000-0  21419-3 0  9992,2 53836  53.2142  92.8016 0001215  57.7508 252.3150 15.73188394  1302,6727.928000000001,91.534,350.611,348.976,0.0
53836.0,STARLINK-4778,PAYLOAD,2022-10-22 22:00:00,15.73218376,0.0001389,53.2141,91.1533,45.073,353.9403,0.00095369,0.00135511,0.0,0 STARLINK-4778,1 53836U 22114U   22295.91667824  .00135511  00000-0  95369-3 0  9999,2 53836  53.2141  91.1533 0001389  45.0730 353.9403 15.73218376  1309,6727.843000000003,91.532,350.642,348.773,0.0
53836.0,STARLINK-4778,PAYLOAD,2022-10-23 08:00:01,15.7330181,0.0001264,53.2141,89.0886,51.1767,189.1885,5.372800000000001e-05,6.959e-05,0.0,0 STARLINK-4778,1 53836U 22114U   22296.33335648  .00006959  00000-0  53728-4 0  9999,2 53836  53.2141  89.0886 0001264  51.1767 189.1885 15.73301810  5972,6727.605,91.527,350.32,348.62,0.0
53836.0,STARLINK-4778,PAYLOAD,2022-10-23 14:00:01,15.7328483,0.0001313,53.2142,87.8525,48.5018,168.558,-0.00032408,-0.0004602,0.0,0 STARLINK-4778,1 53836U 22114U   22296.58334491 -.00046020  00000-0 -32408-3 0  9997,2 53836  53.2142  87.8525 0001313  48.5018 168.5580 15.73284830  1301,6727.653,91.528,350.402,348.635,0.0
53836.0,STARLINK-4778,PAYLOAD,2022-10-23 22:00:00,15.73254435,0.000146,53.2136,86.2038,38.2229,267.8477,-0.00058017,-0.0008145,0.0,0 STARLINK-4778,1 53836U 22114U   22296.91667824 -.00081450  00000-0 -58017-3 0  9993,2 53836  53.2136  86.2038 0001460  38.2229 267.8477 15.73254435  1305,6727.74,91.53,350.587,348.62300000000016,0.0
53836.0,STARLINK-4778,PAYLOAD,2022-10-24 06:00:00,15.73158417,0.0001419,53.2138,84.5519,52.18899999999999,342.8617,-0.000603,-0.00084256,0.0,0 STARLINK-4778,1 53836U 22114U   22297.25001157 -.00084256  00000-0 -60300-3 0  9997,2 53836  53.2138  84.5519 0001419  52.1890 342.8617 15.73158417  6112,6728.014,91.536,350.833,348.9240000000001,0.0
53836.0,STARLINK-4778,PAYLOAD,2022-10-24 14:00:01,15.73079276,0.0001538,53.2141,82.9036,49.4682,74.4229,0.00023128,0.00031795,0.0,0 STARLINK-4778,1 53836U 22114U   22297.58334491  .00031795  00000-0  23128-3 0  9998,2 53836  53.2141  82.9036 0001538  49.4682  74.4229 15.73079276  1300,6728.239000000001,91.54,351.139,349.07,0.0
53836.0,STARLINK-4778,PAYLOAD,2022-10-24 22:00:00,15.73093193,0.0001568,53.2141,81.2552,38.1267,174.5527,0.0012799,0.00182118,0.0,0 STARLINK-4778,1 53836U 22114U   22297.91667824  .00182118  00000-0  12799-2 0  9991,2 53836  53.2141  81.2552 0001568  38.1267 174.5527 15.73093193  1309,6728.2,91.539,351.12,349.01,0.0
53836.0,STARLINK-4778,PAYLOAD,2022-10-25 00:00:00,15.73165718,0.000156,53.2143,80.8423,37.2179,287.6544,0.00055697,0.00078163,0.0,0 STARLINK-4778,1 53836U 22114U   22298.00001157  .00078163  00000-0  55697-3 0  9992,2 53836  53.2143  80.8423 0001560  37.2179 287.6544 15.73165718  6232,6727.993,91.535,350.907,348.80800000000005,0.0
53836.0,STARLINK-4778,PAYLOAD,2022-10-25 06:00:00,15.73202544,0.0001465,53.2145,79.6036,42.9013,258.6494,-9.5762e-05,-0.00014039,0.0,0 STARLINK-4778,1 53836U 22114U   22298.25001157 -.00014039  00000-0 -95762-4 0  9991,2 53836  53.2145  79.6036 0001465  42.9013 258.6494 15.73202544  6279,6727.888000000001,91.533,350.73900000000015,348.767,0.0
53836.0,STARLINK-4778,PAYLOAD,2022-10-25 14:00:01,15.73215184,0.0001705,53.2145,77.9553,42.1036,348.3924,-7.2662e-05,-0.00010812,0.0,0 STARLINK-4778,1 53836U 22114U   22298.58334491 -.00010812  00000-0 -72662-4 0  9996,2 53836  53.2145  77.9553 0001705  42.1036 348.3924 15.73215184  1306,6727.852,91.532,350.86400000000015,348.57,0.0
53836.0,STARLINK-4778,PAYLOAD,2022-10-25 22:00:01,15.73190996,0.000176,53.214,76.3063,35.5217,83.9902,0.00023423,0.00032367,0.0,0 STARLINK-4778,1 53836U 22114U   22298.91668981  .00032367  00000-0  23423-3 0  9994,2 53836  53.2140  76.3063 0001760  35.5217  83.9902 15.73190996  1309,6727.920999999999,91.534,350.97,348.602,0.0
